{
  "links" : {
    "next" : "https://api.nasa.gov/neo/rest/v1/feed?start_date=2012-03-23&end_date=2012-03-23&detailed=true&api_key=t0TVs3DtDT2H8Oy2Zy8m2eVrNsAVKAexjcZXUckd",
    "prev" : "https://api.nasa.gov/neo/rest/v1/feed?start_date=2012-03-21&end_date=2012-03-21&detailed=true&api_key=t0TVs3DtDT2H8Oy2Zy8m2eVrNsAVKAexjcZXUckd",
    "self" : "https://api.nasa.gov/neo/rest/v1/feed?start_date=2012-03-22&end_date=2012-03-22&detailed=true&api_key=t0TVs3DtDT2H8Oy2Zy8m2eVrNsAVKAexjcZXUckd"
  },
  "element_count" : 4,
  "near_earth_objects" : {
    "2012-03-22" : [ {
      "links" : {
        "self" : "https://api.nasa.gov/neo/rest/v1/neo/3601278?api_key=t0TVs3DtDT2H8Oy2Zy8m2eVrNsAVKAexjcZXUckd"
      },
      "neo_reference_id" : "3601278",
      "name" : "(2012 EK5)",
      "nasa_jpl_url" : "http://ssd.jpl.nasa.gov/sbdb.cgi?sstr=3601278",
      "absolute_magnitude_h" : 25.6,
      "estimated_diameter" : {
        "kilometers" : {
          "estimated_diameter_min" : 0.0201629919,
          "estimated_diameter_max" : 0.0450858206
        },
        "meters" : {
          "estimated_diameter_min" : 20.1629919443,
          "estimated_diameter_max" : 45.0858206172
        },
        "miles" : {
          "estimated_diameter_min" : 0.0125286985,
          "estimated_diameter_max" : 0.0280150214
        },
        "feet" : {
          "estimated_diameter_min" : 66.1515504905,
          "estimated_diameter_max" : 147.9193637137
        }
      },
      "is_potentially_hazardous_asteroid" : false,
      "close_approach_data" : [ {
        "close_approach_date" : "2012-03-22",
        "epoch_date_close_approach" : 1332399600000,
        "relative_velocity" : {
          "kilometers_per_second" : "15.5049328021",
          "kilometers_per_hour" : "55817.7580875535",
          "miles_per_hour" : "34682.9841850135"
        },
        "miss_distance" : {
          "astronomical" : "0.0149611824",
          "lunar" : "5.8199000359",
          "kilometers" : "2238161",
          "miles" : "1390728.75"
        },
        "orbiting_body" : "Earth"
      } ],
      "orbital_data" : {
        "orbit_id" : "5",
        "orbit_determination_date" : "2017-04-06 08:50:36",
        "orbit_uncertainty" : "9",
        "minimum_orbit_intersection" : ".00530294",
        "jupiter_tisserand_invariant" : "3.826",
        "epoch_osculation" : "2456000.5",
        "eccentricity" : ".5576286548051698",
        "semi_major_axis" : "1.820276414270219",
        "inclination" : "9.950801285408074",
        "ascending_node_longitude" : "4.500812951724806",
        "orbital_period" : "897.02477842069",
        "perihelion_distance" : ".8052381260071386",
        "perihelion_argument" : "240.4859286225832",
        "aphelion_distance" : "2.835314702533299",
        "perihelion_time" : "2456051.323809300015",
        "mean_anomaly" : "339.603048000281",
        "mean_motion" : ".4013267065306928",
        "equinox" : "J2000"
      }
    }, {
      "links" : {
        "self" : "https://api.nasa.gov/neo/rest/v1/neo/3512698?api_key=t0TVs3DtDT2H8Oy2Zy8m2eVrNsAVKAexjcZXUckd"
      },
      "neo_reference_id" : "3512698",
      "name" : "(2010 FR9)",
      "nasa_jpl_url" : "http://ssd.jpl.nasa.gov/sbdb.cgi?sstr=3512698",
      "absolute_magnitude_h" : 26.1,
      "estimated_diameter" : {
        "kilometers" : {
          "estimated_diameter_min" : 0.0160160338,
          "estimated_diameter_max" : 0.0358129403
        },
        "meters" : {
          "estimated_diameter_min" : 16.0160337979,
          "estimated_diameter_max" : 35.8129403019
        },
        "miles" : {
          "estimated_diameter_min" : 0.0099518989,
          "estimated_diameter_max" : 0.0222531225
        },
        "feet" : {
          "estimated_diameter_min" : 52.5460443254,
          "estimated_diameter_max" : 117.4965270602
        }
      },
      "is_potentially_hazardous_asteroid" : false,
      "close_approach_data" : [ {
        "close_approach_date" : "2012-03-22",
        "epoch_date_close_approach" : 1332399600000,
        "relative_velocity" : {
          "kilometers_per_second" : "8.6166393531",
          "kilometers_per_hour" : "31019.9016709908",
          "miles_per_hour" : "19274.5605688442"
        },
        "miss_distance" : {
          "astronomical" : "0.0463004791",
          "lunar" : "18.0108852386",
          "kilometers" : "6926453",
          "miles" : "4303898.5"
        },
        "orbiting_body" : "Earth"
      } ],
      "orbital_data" : {
        "orbit_id" : "11",
        "orbit_determination_date" : "2017-04-06 08:58:03",
        "orbit_uncertainty" : "7",
        "minimum_orbit_intersection" : ".0158778",
        "jupiter_tisserand_invariant" : "4.308",
        "epoch_osculation" : "2458000.5",
        "eccentricity" : ".3815180314579437",
        "semi_major_axis" : "1.57966072372747",
        "inclination" : "5.716963325520387",
        "ascending_node_longitude" : "2.335566792171353",
        "orbital_period" : "725.1772264696898",
        "perihelion_distance" : ".9769916740395351",
        "perihelion_argument" : "214.1459560084404",
        "aphelion_distance" : "2.182329773415405",
        "perihelion_time" : "2458213.382238434799",
        "mean_anomaly" : "254.318791270356",
        "mean_motion" : ".496430371583169",
        "equinox" : "J2000"
      }
    }, {
      "links" : {
        "self" : "https://api.nasa.gov/neo/rest/v1/neo/3599935?api_key=t0TVs3DtDT2H8Oy2Zy8m2eVrNsAVKAexjcZXUckd"
      },
      "neo_reference_id" : "3599935",
      "name" : "(2012 DZ32)",
      "nasa_jpl_url" : "http://ssd.jpl.nasa.gov/sbdb.cgi?sstr=3599935",
      "absolute_magnitude_h" : 21.6,
      "estimated_diameter" : {
        "kilometers" : {
          "estimated_diameter_min" : 0.1272198785,
          "estimated_diameter_max" : 0.2844722965
        },
        "meters" : {
          "estimated_diameter_min" : 127.2198785394,
          "estimated_diameter_max" : 284.4722965033
        },
        "miles" : {
          "estimated_diameter_min" : 0.0790507431,
          "estimated_diameter_max" : 0.1767628354
        },
        "feet" : {
          "estimated_diameter_min" : 417.3880663071,
          "estimated_diameter_max" : 933.3080892598
        }
      },
      "is_potentially_hazardous_asteroid" : false,
      "close_approach_data" : [ {
        "close_approach_date" : "2012-03-22",
        "epoch_date_close_approach" : 1332399600000,
        "relative_velocity" : {
          "kilometers_per_second" : "4.2776831178",
          "kilometers_per_hour" : "15399.6592240521",
          "miles_per_hour" : "9568.7493661895"
        },
        "miss_distance" : {
          "astronomical" : "0.2485558477",
          "lunar" : "96.6882247925",
          "kilometers" : "37183428",
          "miles" : "23104710"
        },
        "orbiting_body" : "Earth"
      } ],
      "orbital_data" : {
        "orbit_id" : "18",
        "orbit_determination_date" : "2017-04-06 08:50:45",
        "orbit_uncertainty" : "6",
        "minimum_orbit_intersection" : ".248396",
        "jupiter_tisserand_invariant" : "3.426",
        "epoch_osculation" : "2458000.5",
        "eccentricity" : ".4685485075683496",
        "semi_major_axis" : "2.30171686698989",
        "inclination" : "7.384237389164341",
        "ascending_node_longitude" : "40.32280874455425",
        "orbital_period" : "1275.487706823359",
        "perihelion_distance" : "1.22325086411688",
        "perihelion_argument" : "133.2892507259169",
        "aphelion_distance" : "3.380182869862901",
        "perihelion_time" : "2458551.290235608531",
        "mean_anomaly" : "204.5422219608023",
        "mean_motion" : ".282244978194726",
        "equinox" : "J2000"
      }
    }, {
      "links" : {
        "self" : "https://api.nasa.gov/neo/rest/v1/neo/3638286?api_key=t0TVs3DtDT2H8Oy2Zy8m2eVrNsAVKAexjcZXUckd"
      },
      "neo_reference_id" : "3638286",
      "name" : "(2013 JK14)",
      "nasa_jpl_url" : "http://ssd.jpl.nasa.gov/sbdb.cgi?sstr=3638286",
      "absolute_magnitude_h" : 24.9,
      "estimated_diameter" : {
        "kilometers" : {
          "estimated_diameter_min" : 0.0278326768,
          "estimated_diameter_max" : 0.0622357573
        },
        "meters" : {
          "estimated_diameter_min" : 27.8326768072,
          "estimated_diameter_max" : 62.2357573367
        },
        "miles" : {
          "estimated_diameter_min" : 0.0172944182,
          "estimated_diameter_max" : 0.0386714948
        },
        "feet" : {
          "estimated_diameter_min" : 91.3145593761,
          "estimated_diameter_max" : 204.1855621004
        }
      },
      "is_potentially_hazardous_asteroid" : false,
      "close_approach_data" : [ {
        "close_approach_date" : "2012-03-22",
        "epoch_date_close_approach" : 1332399600000,
        "relative_velocity" : {
          "kilometers_per_second" : "11.1149164347",
          "kilometers_per_hour" : "40013.6991648502",
          "miles_per_hour" : "24862.956572737"
        },
        "miss_distance" : {
          "astronomical" : "0.3557865405",
          "lunar" : "138.4009552002",
          "kilometers" : "53224908",
          "miles" : "33072424"
        },
        "orbiting_body" : "Earth"
      } ],
      "orbital_data" : {
        "orbit_id" : "7",
        "orbit_determination_date" : "2017-04-06 08:45:55",
        "orbit_uncertainty" : "7",
        "minimum_orbit_intersection" : ".00757691",
        "jupiter_tisserand_invariant" : "6.388",
        "epoch_osculation" : "2458000.5",
        "eccentricity" : ".4643832578435985",
        "semi_major_axis" : ".9217344007415763",
        "inclination" : "4.873367484614554",
        "ascending_node_longitude" : "55.74071437400801",
        "orbital_period" : "323.226620523982",
        "perihelion_distance" : ".4936963768586862",
        "perihelion_argument" : "313.0164204914738",
        "aphelion_distance" : "1.349772424624466",
        "perihelion_time" : "2458122.836811967918",
        "mean_anomaly" : "223.7449717567965",
        "mean_motion" : "1.11376964996387",
        "equinox" : "J2000"
      }
    } ]
  }
}